HUYGENS                 
1 55093U 23001CN  26170.81048866  .00007485  00000+0  18864-3 0  9998
2 55093  97.3246 238.0137 0010986  78.4057 281.8422 15.40113869192775
SHARJAHSAT-1            
1 55104U 23001CZ  26170.82585311  .00017417  00000+0  32135-3 0  9996
2 55104  97.3167 239.6284 0006921  95.7980 264.4060 15.49150857192908
HORUS 1                 
1 55690U 23025A   26170.84619339  .00004327  00000+0  18541-3 0  9993
2 55690  97.3459 245.3862 0001531 147.0581 213.0751 15.23284600184452
HORUS 2                 
1 55844U 23032A   26170.81584749  .00004677  00000+0  19919-3 0  9993
2 55844  97.3530 246.1642 0002295 102.9921 257.1572 15.23449154181885
GLOBAL-19               
1 55982U 23041B   26170.50127743  .00009023  00000+0  24203-3 0  9991
2 55982  42.0000 188.3911 0008333  19.0119 341.1030 15.38063484182281
BRO-9                   
1 56185U 23054H   26170.93414153  .01015587  64773-3  93651-3 0  9999
2 56185  97.2893  89.7816 0009810 175.1713 184.9668 16.12415579179535
ION SCV-010             
1 56192U 23054Q   26170.71696889  .00003547  00000+0  13964-3 0  9991
2 56192  97.3775  60.1859 0012446 187.7952 172.3095 15.26213653176586
TELEOS-2                
1 56310U 23057C   26170.88875172  .00000687  00000+0  27642-8 0  9993
2 56310   9.9869 184.5084 0000174 194.6500 165.3708 14.96429159173208
SNIPE 4                 
1 56744U 23072B   26170.80901466  .00017492  00000+0  40602-3 0  9997
2 56744  97.5249  16.8969 0004148 326.8774  33.2213 15.42435277170515
SNIPE 2                 
1 56745U 23072C   26170.84420470  .00022611  00000+0  44958-3 0  9990
2 56745  97.5243  19.9954 0003805   4.6686 355.4598 15.46959774170657
2023-072G               
1 56749U 23072G   26170.83827959  .00025411  00000+0  44326-3 0  9996
2 56749  97.4902  18.7956 0002450 358.4029   1.7214 15.50699991170874
GEISAT PRECURSOR        
1 56934U 23084C   26170.82698804  .00006107  00000+0  18417-3 0  9992
2 56934  97.6231 311.8667 0004702 347.4203  12.6922 15.34680729167938
BLACKJACK ACES-3        
1 56950U 23084U   26170.80602005  .00004328  00000+0  21330-3 0  9997
2 56950  97.6217 306.0163 0002367  31.1133 329.0240 15.18491443167563
BLACKJACK ACES-2        
1 56955U 23084Z   26170.41670995  .00003501  00000+0  17317-3 0  9994
2 56955  97.6210 305.7089 0000932  97.1556 262.9783 15.18500559167512
BLACKJACK ACES-1        
1 56956U 23084AA  26170.40450519  .00005629  00000+0  27585-3 0  9993
2 56956  97.6206 305.4707 0001125 109.4319 250.7036 15.18551517117231
ION SCV-011             
1 56957U 23084AB  26170.55338627  .00004112  00000+0  14966-3 0  9990
2 56957  98.1383 358.0514 0007838  38.3079 321.8714 15.28864897166173
GHOST-3                 
1 56958U 23084AC  26170.36144428  .00014964  00000+0  28852-3 0  9999
2 56958  97.6220 319.0497 0005457 284.4775  75.5869 15.47939306168352
TOMORROW-R2             
1 56962U 23084AG  26170.53087705  .00650141  23372-3  63079-3 0  9991
2 56962  97.6051 335.1293 0009007 244.5591 115.4762 16.11562795169432
AFR-1                   
1 56964U 23084AJ  26170.85083721  .00003550  00000+0  13044-3 0  9994
2 56964  97.6281 307.6057 0009713 337.0310  23.0494 15.28573460167636
METEOR-M2 3             
1 57166U 23091A   26170.83870102 -.00000016  00000+0  11992-4 0  9998
2 57166  98.6081 225.7628 0004497 148.6715 211.4732 14.24047001154897
UMKA 1 (RS40S)          
1 57172U 23091G   26170.85733329  .00004983  00000+0  22835-3 0  9999
2 57172  97.5046 229.5444 0014324 109.3771 250.9014 15.20843546164412
2023-091H               
1 57173U 23091H   26170.86678088  .00009735  00000+0  35104-3 0  9994
2 57173  97.5043 234.0806 0011285 105.0501 255.1988 15.28684981164714
2023-091J               
1 57174U 23091J   26170.83219646  .00003202  00000+0  17989-3 0  9997
2 57174  97.5051 223.8911 0014513 134.6603 225.5814 15.13941832164034
CUBEBEL 2 (EU11S)       
1 57175U 23091K   26170.86674250  .00011284  00000+0  39995-3 0  9997
2 57175  97.5046 234.1078 0011286 106.7059 253.5420 15.29206882164712
SITRO-AIS 5 (KATYS)     
1 57176U 23091L   26170.81778392  .00009792  00000+0  34416-3 0  9999
2 57176  97.5056 234.7424 0012724  95.3545 264.9147 15.29506613164746
ZORKIY-2M 1             
1 57177U 23091M   26170.84357272  .00006022  00000+0  27447-3 0  9992
2 57177  97.5086 229.8005 0014846 106.9374 253.3490 15.20932107164404
CUBESX-HSE 3 (RS42S)    
1 57178U 23091N   26170.85313227  .00011296  00000+0  37566-3 0  9998
2 57178  97.5086 236.4742 0011962  86.5917 273.6692 15.31270695164834
MONITOR-3 (RS58S)       
1 57180U 23091Q   26170.81801916  .00008464  00000+0  31291-3 0  9996
2 57180  97.5078 234.2836 0013060  92.7120 267.5615 15.27885341164690
MONITOR-4 (RS57S)       
1 57182U 23091S   26170.86241804  .00009000  00000+0  33168-3 0  9999
2 57182  97.5072 234.2997 0013060  92.9524 267.3210 15.27972148164707
MONITOR-2 (RS39S)       
1 57184U 23091U   26170.81606228  .00003760  00000+0  18299-3 0  9996
2 57184  97.5067 229.0822 0012779 103.1643 257.1018 15.18930786164351
