OBJECT_NAME,OBJECT_ID,EPOCH,MEAN_MOTION,ECCENTRICITY,INCLINATION,RA_OF_ASC_NODE,ARG_OF_PERICENTER,MEAN_ANOMALY,EPHEMERIS_TYPE,CLASSIFICATION_TYPE,NORAD_CAT_ID,ELEMENT_SET_NO,REV_AT_EPOCH,BSTAR,MEAN_MOTION_DOT,MEAN_MOTION_DDOT
HUYGENS,2023-001CN,2026-06-19T19:27:06.220224,15.40113869,.0010986,97.3246,238.0137,78.4057,281.8422,0,U,55093,999,19277,.18864E-3,.7485E-4,0
SHARJAHSAT-1,2023-001CZ,2026-06-19T19:49:13.708704,15.49150857,.0006921,97.3167,239.6284,95.7980,264.4060,0,U,55104,999,19290,.32135E-3,.17417E-3,0
HORUS 1,2023-025A,2026-06-19T20:18:31.108896,15.23284600,.0001531,97.3459,245.3862,147.0581,213.0751,0,U,55690,999,18445,.18541E-3,.4327E-4,0
HORUS 2,2023-032A,2026-06-19T19:34:49.223136,15.23449154,.0002295,97.3530,246.1642,102.9921,257.1572,0,U,55844,999,18188,.19919E-3,.4677E-4,0
GLOBAL-19,2023-041B,2026-06-19T12:01:50.369952,15.38063484,.00083333,42.0000,188.3911,19.0119,341.1030,0,U,55982,999,18228,.24203159E-3,.9023E-4,0
BRO-9,2023-054H,2026-06-19T22:25:09.828192,16.12415579,.000981,97.2893,89.7816,175.1713,184.9668,0,U,56185,999,17953,.93651E-3,.1015587E-1,.64773E-3
ION SCV-010,2023-054Q,2026-06-19T17:12:26.112096,15.26213653,.0012446,97.3775,60.1859,187.7952,172.3095,0,U,56192,999,17658,.13964E-3,.3547E-4,0
TELEOS-2,2023-057C,2026-06-19T21:19:48.148608,14.96429159,.0000174,9.9869,184.5084,194.6500,165.3708,0,U,56310,999,17320,.27642E-8,.687E-5,0
SNIPE 4,2023-072B,2026-06-19T19:24:58.866624,15.42435277,.0004148,97.5249,16.8969,326.8774,33.2213,0,U,56744,999,17051,.40602E-3,.17492E-3,0
SNIPE 2,2023-072C,2026-06-19T20:15:39.286080,15.46959774,.0003805,97.5243,19.9954,4.6686,355.4598,0,U,56745,999,17065,.44958E-3,.22611E-3,0
2023-072G,2023-072G,2026-06-19T20:07:07.356576,15.50699991,.000245,97.4902,18.7956,358.4029,1.7214,0,U,56749,999,17087,.44326E-3,.25411E-3,0
GEISAT PRECURSOR,2023-084C,2026-06-19T19:50:51.766656,15.34680729,.0004702,97.6231,311.8667,347.4203,12.6922,0,U,56934,999,16793,.18417E-3,.6107E-4,0
BLACKJACK ACES-3,2023-084U,2026-06-19T19:20:40.132320,15.18491443,.0002367,97.6217,306.0163,31.1133,329.0240,0,U,56950,999,16756,.2133E-3,.4328E-4,0
BLACKJACK ACES-2,2023-084Z,2026-06-19T10:00:03.739680,15.18500559,.00009325,97.6210,305.7089,97.1556,262.9783,0,U,56955,999,16751,.17316658E-3,.3501E-4,0
BLACKJACK ACES-1,2023-084AA,2026-06-19T09:42:29.248416,15.18551517,.0001125,97.6206,305.4707,109.4319,250.7036,0,U,56956,999,11723,.27585E-3,.5629E-4,0
ION SCV-011,2023-084AB,2026-06-19T13:16:52.573728,15.28864897,.00078388,98.1383,358.0514,38.3079,321.8714,0,U,56957,999,16617,.14965991E-3,.4112E-4,0
GHOST-3,2023-084AC,2026-06-19T08:40:28.785792,15.47939306,.0005457,97.6220,319.0497,284.4775,75.5869,0,U,56958,999,16835,.28851724E-3,.14964E-3,0
TOMORROW-R2,2023-084AG,2026-06-19T12:44:27.777120,16.11562795,.00090078,97.6051,335.1293,244.5591,115.4762,0,U,56962,999,16943,.63078646E-3,.650141E-2,.23371925E-3
AFR-1,2023-084AJ,2026-06-19T20:25:12.334944,15.28573460,.0009713,97.6281,307.6057,337.0310,23.0494,0,U,56964,999,16763,.13044E-3,.355E-4,0
METEOR-M2 3,2023-091A,2026-06-19T20:07:43.768128,14.24047001,.0004497,98.6081,225.7628,148.6715,211.4732,0,U,57166,999,15489,.11992E-4,-.16E-6,0
UMKA 1 (RS40S),2023-091G,2026-06-19T20:34:33.596256,15.20843546,.0014324,97.5046,229.5444,109.3771,250.9014,0,U,57172,999,16441,.22835E-3,.4983E-4,0
2023-091H,2023-091H,2026-06-19T20:48:09.868032,15.28684981,.0011285,97.5043,234.0806,105.0501,255.1988,0,U,57173,999,16471,.35104E-3,.9735E-4,0
2023-091J,2023-091J,2026-06-19T19:58:21.774144,15.13941832,.0014513,97.5051,223.8911,134.6603,225.5814,0,U,57174,999,16403,.17989E-3,.3202E-4,0
CUBEBEL 2 (EU11S),2023-091K,2026-06-19T20:48:06.552000,15.29206882,.0011286,97.5046,234.1078,106.7059,253.5420,0,U,57175,999,16471,.39995E-3,.11284E-3,0
SITRO-AIS 5 (KATYS),2023-091L,2026-06-19T19:37:36.530688,15.29506613,.0012724,97.5056,234.7424,95.3545,264.9147,0,U,57176,999,16474,.34416E-3,.9792E-4,0
ZORKIY-2M 1,2023-091M,2026-06-19T20:14:44.683008,15.20932107,.0014846,97.5086,229.8005,106.9374,253.3490,0,U,57177,999,16440,.27447E-3,.6022E-4,0
CUBESX-HSE 3 (RS42S),2023-091N,2026-06-19T20:28:30.628128,15.31270695,.0011962,97.5086,236.4742,86.5917,273.6692,0,U,57178,999,16483,.37566E-3,.11296E-3,0
MONITOR-3 (RS58S),2023-091Q,2026-06-19T19:37:56.855424,15.27885341,.001306,97.5078,234.2836,92.7120,267.5615,0,U,57180,999,16469,.31291E-3,.8464E-4,0
MONITOR-4 (RS57S),2023-091S,2026-06-19T20:41:52.918656,15.27972148,.001306,97.5072,234.2997,92.9524,267.3210,0,U,57182,999,16470,.33168E-3,.9E-4,0
MONITOR-2 (RS39S),2023-091U,2026-06-19T19:35:07.780992,15.18930786,.0012779,97.5067,229.0822,103.1643,257.1018,0,U,57184,999,16435,.18299E-3,.376E-4,0
